FENGYUN 1C DEB          
1 36167U 99025DSQ 17345.12419061  .00000393  00000-0  14724-3 0  9998
2 36167  98.8192 107.1024 0085459 245.7779 113.4457 14.35451123467369
